[{"OBJECT_NAME":"STARLINK-6154","OBJECT_ID":"2023-090Y","EPOCH":"2026-03-09T00:00:58.825440","MEAN_MOTION":15.02532998,"ECCENTRICITY":0.00014754,"INCLINATION":43.0045,"RA_OF_ASC_NODE":278.0584,"ARG_OF_PERICENTER":280.7666,"MEAN_ANOMALY":79.301,"EPHEMERIS_TYPE":0,"CLASSIFICATION_TYPE":"U","NORAD_CAT_ID":57123,"ELEMENT_SET_NO":999,"REV_AT_EPOCH":15012,"BSTAR":-6.569127e-6,"MEAN_MOTION_DOT":-2.92e-6,"MEAN_MOTION_DDOT":0},{"OBJECT_NAME":"KOMPSAT-7","OBJECT_ID":"2025-279A","EPOCH":"2026-03-09T20:54:17.078400","MEAN_MOTION":15.01421798,"ECCENTRICITY":0.00098953,"INCLINATION":97.6738,"RA_OF_ASC_NODE":18.4558,"ARG_OF_PERICENTER":343.5135,"MEAN_ANOMALY":16.5766,"EPHEMERIS_TYPE":0,"CLASSIFICATION_TYPE":"U","NORAD_CAT_ID":66820,"ELEMENT_SET_NO":999,"REV_AT_EPOCH":1472,"BSTAR":0.00031598708,"MEAN_MOTION_DOT":4.022e-5,"MEAN_MOTION_DDOT":0}]
