STARLINK-6154           
1 57123U 23090Y   26068.00068085 -.00000292  00000+0 -65691-5 0  9997
2 57123  43.0045 278.0584 0001475 280.7666  79.3010 15.02532998150125
KOMPSAT-7               
1 66820U 25279A   26068.87103100  .00004022  00000+0  31599-3 0  9996
2 66820  97.6738  18.4558 0009895 343.5135  16.5766 15.01421798 14723
